OBJECT_NAME,OBJECT_ID,EPOCH,MEAN_MOTION,ECCENTRICITY,INCLINATION,RA_OF_ASC_NODE,ARG_OF_PERICENTER,MEAN_ANOMALY,EPHEMERIS_TYPE,CLASSIFICATION_TYPE,NORAD_CAT_ID,ELEMENT_SET_NO,REV_AT_EPOCH,BSTAR,MEAN_MOTION_DOT,MEAN_MOTION_DDOT
GALAXY 33 (G-33),2022-128A,2026-06-19T13:00:02.408256,1.00270256,.00017031,0.0196,49.2747,35.1210,245.3737,0,U,54026,999,1376,0,.73E-6,0
GALAXY 34 (G-34),2022-128B,2026-06-19T17:23:46.764384,1.00275881,.0001675,0.0118,50.0538,48.8611,300.9719,0,U,54027,999,1393,0,.53E-6,0
ANGOSAT 2,2022-131A,2026-06-19T19:49:47.593920,1.00272067,.0000588,0.0227,89.1320,336.6961,162.6532,0,U,54033,999,1350,0,.13E-5,0
EUTELSAT HOTBIRD 13F,2022-134A,2026-06-19T12:56:06.902592,1.00271695,.00020897,0.0478,295.9100,61.3104,117.5805,0,U,54048,999,1340,0,.81E-6,0
LDPE-2,2022-144A,2026-06-19T14:26:57.989184,1.00533537,.0001859,5.6198,63.6357,100.1284,165.5832,0,U,54219,999,1186,0,.119E-5,0
EUTELSAT HOTBIRD 13G,2022-146A,2026-06-19T12:56:06.902592,1.00270916,.00019211,0.0469,225.3137,317.5041,291.9687,0,U,54225,999,749,0,.81E-6,0
ZHONGXING-19,2022-148A,2026-06-19T18:55:51.491424,1.00271746,.0002422,0.0158,34.9185,76.3980,243.8466,0,U,54230,999,1340,0,-.87E-6,0
GALAXY 31 (G-31),2022-153A,2026-06-19T15:43:20.525088,1.00271913,.0001142,0.0226,84.3496,355.7948,302.5529,0,U,54243,999,715,0,.7E-7,0
GALAXY 32 (G-32),2022-153B,2026-06-19T19:17:06.929088,1.00271611,.0002078,0.0145,32.1698,4.4975,69.6346,0,U,54244,999,1317,0,-.18E-5,0
EUTELSAT 10B,2022-157A,2026-06-18T21:31:30.375840,1.00265775,.0001155,0.0649,97.2261,12.1338,130.6241,0,U,54259,999,1304,0,.61E-6,0
GALAXY 35 (G-35),2022-170A,2026-06-19T12:26:02.287392,1.00271924,.00018476,0.0133,66.3445,18.4425,276.3511,0,U,54741,999,1291,0,-.168E-5,0
GALAXY 36 (G-36),2022-170B,2026-06-19T12:27:09.679392,1.00272164,.00025384,0.0040,322.4331,121.0454,282.0519,0,U,54742,999,1279,0,-.191E-5,0
METEOSAT-12 (MTG-I1),2022-170C,2026-06-19T18:49:38.806752,1.00273379,.0003294,0.7417,23.4562,70.9029,95.6585,0,U,54743,999,1300,0,-.14E-6,0
SHIJIAN-23 (SJ-23),2023-002A,2026-06-19T17:33:14.167872,1.00087198,.0003795,3.7250,78.2832,274.4825,324.9183,0,U,55131,999,1253,0,-.27E-5,0
APSTAR-6E,2023-005A,2026-06-18T16:35:31.820064,1.00270657,.0000913,0.0387,247.7467,297.0745,104.9723,0,U,55239,999,1870,0,-.324E-5,0
USA 342,2023-008A,2026-06-19T16:53:16.090080,1.00267812,.0000125,0.0057,73.3519,107.0449,4.6843,0,U,55263,999,1254,0,0,0
LDPE-3A,2023-008B,2026-06-19T15:43:57.964800,0.99145337,.0001177,2.3553,81.6355,58.6452,244.5448,0,U,55264,999,1183,0,.68E-6,0
ELEKTRO-L 4,2023-016A,2026-06-18T19:08:38.237856,1.00270886,.0000858,0.0749,160.1292,16.4426,183.4163,0,U,55506,999,1235,0,-.65E-6,0
AMAZONAS NEXUS,2023-017A,2026-06-19T19:38:38.806080,1.00264811,.0004743,0.0386,39.7222,27.7449,74.2186,0,U,55508,999,707,0,-.288E-5,0
ZHONGXING-26,2023-023A,2026-06-18T19:16:33.820608,1.00269988,.00033891,0.0695,70.8286,15.8874,234.5879,0,U,55686,999,1224,0,-.36E-5,0
LUCH-5X (OLYMP-K 2),2023-031A,2026-06-19T18:17:04.316064,1.00272255,.0000831,0.0305,68.8181,134.2967,41.1254,0,U,55841,999,1196,0,.27E-6,0
GAOFEN-13 02,2023-036A,2026-06-19T17:00:11.524608,1.00270143,.0004015,1.0210,1.5052,336.5470,333.2101,0,U,55912,999,1211,0,-.224E-5,0
SES-18,2023-038A,2026-06-18T14:54:41.006016,1.00271473,.00001214,0.0169,299.6964,324.7472,122.9796,0,U,55970,999,1211,0,-.107E-5,0
SES-19,2023-038B,2026-06-19T13:56:44.033280,1.00270793,.0001685,0.0325,292.5268,160.1425,249.4169,0,U,55971,999,1211,0,.82E-6,0
INTELSAT 40E (IS-40E),2023-052A,2026-06-19T19:17:06.929088,1.00271291,.0002012,0.0149,73.4529,51.3927,341.4509,0,U,56174,999,1185,0,-.18E-5,0
VIASAT-3 F1,2023-060A,2026-06-19T19:17:44.368800,1.00271166,.0001101,0.0240,350.3723,91.4983,26.6368,0,U,56370,999,1146,0,0,0
ARCTURUS,2023-060B,2026-06-19T20:47:26.256768,1.00272435,.0002649,2.7819,79.9208,53.3995,159.1286,0,U,56371,999,1148,0,-.69E-6,0
GS-1,2023-060C,2026-06-18T17:20:11.631840,1.00274169,.00037425,2.7297,79.8139,281.5832,255.0259,0,U,56372,999,755,0,-.232E-5,0
BEIDOU-3 G4,2023-066A,2026-06-19T20:09:23.394240,1.00272989,.0004433,0.4834,332.2665,179.1835,199.0021,0,U,56564,999,1142,0,-.286E-5,0
ARABSAT-7B (BADR-8),2023-075A,2026-06-18T23:18:42.734016,1.00269738,.00044209,0.0752,28.6288,356.1824,258.0734,0,U,56757,999,1113,0,.138E-5,0
NVS-01 (IRNSS-1J),2023-076A,2026-06-19T18:37:25.732992,1.00278099,.0003071,2.1590,244.2196,18.5095,54.0475,0,U,56759,999,1114,0,-.341E-5,0
