GALAXY 33 (G-33)        
1 54026U 22128A   26170.54169454  .00000073  00000+0  00000+0 0  9994
2 54026   0.0196  49.2747 0001703  35.1210 245.3737  1.00270256 13762
GALAXY 34 (G-34)        
1 54027U 22128B   26170.72484681  .00000053  00000+0  00000+0 0  9995
2 54027   0.0118  50.0538 0001675  48.8611 300.9719  1.00275881 13935
ANGOSAT 2               
1 54033U 22131A   26170.82624530  .00000130  00000+0  00000+0 0  9992
2 54033   0.0227  89.1320 0000588 336.6961 162.6532  1.00272067 13505
EUTELSAT HOTBIRD 13F    
1 54048U 22134A   26170.53896878  .00000081  00000+0  00000+0 0  9990
2 54048   0.0478 295.9100 0002089  61.3104 117.5805  1.00271695 13408
LDPE-2                  
1 54219U 22144A   26170.60206006  .00000119  00000+0  00000+0 0  9999
2 54219   5.6198  63.6357 0001859 100.1284 165.5832  1.00533537 11864
EUTELSAT HOTBIRD 13G    
1 54225U 22146A   26170.53896878  .00000081  00000+0  00000+0 0  9990
2 54225   0.0469 225.3137 0001921 317.5041 291.9687  1.00270916  7494
ZHONGXING-19            
1 54230U 22148A   26170.78879041 -.00000087  00000+0  00000+0 0  9995
2 54230   0.0158  34.9185 0002422  76.3980 243.8466  1.00271746 13402
GALAXY 31 (G-31)        
1 54243U 22153A   26170.65509867  .00000007  00000+0  00000+0 0  9998
2 54243   0.0226  84.3496 0001142 355.7948 302.5529  1.00271913  7156
GALAXY 32 (G-32)        
1 54244U 22153B   26170.80355242 -.00000180  00000+0  00000+0 0  9995
2 54244   0.0145  32.1698 0002078   4.4975  69.6346  1.00271611 13171
EUTELSAT 10B            
1 54259U 22157A   26169.89687935  .00000061  00000+0  00000+0 0  9996
2 54259   0.0649  97.2261 0001155  12.1338 130.6241  1.00265775 13041
GALAXY 35 (G-35)        
1 54741U 22170A   26170.51808203 -.00000168  00000+0  00000+0 0  9990
2 54741   0.0133  66.3445 0001847  18.4425 276.3511  1.00271924 12916
GALAXY 36 (G-36)        
1 54742U 22170B   26170.51886203 -.00000191  00000+0  00000+0 0  9993
2 54742   0.0040 322.4331 0002538 121.0454 282.0519  1.00272164 12790
METEOSAT-12 (MTG-I1)    
1 54743U 22170C   26170.78447693 -.00000014  00000+0  00000+0 0  9993
2 54743   0.7417  23.4562 0003294  70.9029  95.6585  1.00273379 13005
SHIJIAN-23 (SJ-23)      
1 55131U 23002A   26170.73141398 -.00000270  00000+0  00000+0 0  9992
2 55131   3.7250  78.2832 0003795 274.4825 324.9183  1.00087198 12535
APSTAR-6E               
1 55239U 23005A   26169.69134051 -.00000324  00000+0  00000+0 0  9995
2 55239   0.0387 247.7467 0000913 297.0745 104.9723  1.00270657 18708
USA 342                 
1 55263U 23008A   26170.70365845  .00000000  00000+0  00000+0 0  9996
2 55263   0.0057  73.3519 0000125 107.0449   4.6843  1.00267812 12540
LDPE-3A                 
1 55264U 23008B   26170.65553200  .00000068  00000+0  00000+0 0  9999
2 55264   2.3553  81.6355 0001177  58.6452 244.5448  0.99145337 11831
ELEKTRO-L 4             
1 55506U 23016A   26169.79766479 -.00000065  00000+0  00000+0 0  9992
2 55506   0.0749 160.1292 0000858  16.4426 183.4163  1.00270886 12357
AMAZONAS NEXUS          
1 55508U 23017A   26170.81850470 -.00000288  00000+0  00000+0 0  9992
2 55508   0.0386  39.7222 0004743  27.7449  74.2186  1.00264811  7073
ZHONGXING-26            
1 55686U 23023A   26169.80316922 -.00000360  00000+0  00000+0 0  9993
2 55686   0.0695  70.8286 0003389  15.8874 234.5879  1.00269988 12249
LUCH-5X (OLYMP-K 2)     
1 55841U 23031A   26170.76185551  .00000027  00000+0  00000+0 0  9993
2 55841   0.0305  68.8181 0000831 134.2967  41.1254  1.00272255 11967
GAOFEN-13 02            
1 55912U 23036A   26170.70846672 -.00000224  00000+0  00000+0 0  9999
2 55912   1.0210   1.5052 0004015 336.5470 333.2101  1.00270143 12115
SES-18                  
1 55970U 23038A   26169.62130794 -.00000107  00000+0  00000+0 0  9995
2 55970   0.0169 299.6964 0000121 324.7472 122.9796  1.00271473 12118
SES-19                  
1 55971U 23038B   26170.58106520  .00000082  00000+0  00000+0 0  9994
2 55971   0.0325 292.5268 0001685 160.1425 249.4169  1.00270793 12111
INTELSAT 40E (IS-40E)   
1 56174U 23052A   26170.80355242 -.00000180  00000+0  00000+0 0  9998
2 56174   0.0149  73.4529 0002012  51.3927 341.4509  1.00271291 11855
VIASAT-3 F1             
1 56370U 23060A   26170.80398575  .00000000  00000+0  00000+0 0  9991
2 56370   0.0240 350.3723 0001101  91.4983  26.6368  1.00271166 11466
ARCTURUS                
1 56371U 23060B   26170.86627612 -.00000069  00000+0  00000+0 0  9991
2 56371   2.7819  79.9208 0002649  53.3995 159.1286  1.00272435 11481
GS-1                    
1 56372U 23060C   26169.72235685 -.00000232  00000+0  00000+0 0  9992
2 56372   2.7297  79.8139 0003742 281.5832 255.0259  1.00274169  7559
BEIDOU-3 G4             
1 56564U 23066A   26170.83985410 -.00000286  00000+0  00000+0 0  9992
2 56564   0.4834 332.2665 0004433 179.1835 199.0021  1.00272989 11420
ARABSAT-7B (BADR-8)     
1 56757U 23075A   26169.97132794  .00000138  00000+0  00000+0 0  9993
2 56757   0.0752  28.6288 0004420 356.1824 258.0734  1.00269738 11130
NVS-01 (IRNSS-1J)       
1 56759U 23076A   26170.77599228 -.00000341  00000+0  00000+0 0  9992
2 56759   2.1590 244.2196 0003071  18.5095  54.0475  1.00278099 11146
